{
  "norad_id": 51864,
  "name": "STARLINK-3548",
  "history": [
    {
      "epoch": "2026-03-28T18:53:35.650752",
      "apogee_km": 540.650022495859,
      "perigee_km": 538.7975577334819,
      "latitude_deg": -52.07461535139241,
      "longitude_deg": 161.97294527990744,
      "semi_major_axis_km": 6917.86079011467,
      "eccentricity": 0.00013389,
      "inclination_deg": 53.217,
      "raan_deg": 283.3139,
      "arg_perigee_deg": 82.2034,
      "mean_anomaly_deg": 277.911,
      "mean_motion_rev_day": 15.08846412
    }
  ]
}