{"fetched_at":"2026-03-29T16:36:15Z","count":15609,"tles":[{"name":"STARLINK-3548","line1":"1 51864U 22022N   26087.78721818 -.00000021  00000+0  16763-4 0  9997","line2":"2 51864  53.2170 283.3139 0001338  82.2034 277.9110 15.08846412226047","category":"Starlink"}]}